YAOGAN-35 01A           
1 49390U 21101A   26068.78009532  .00012075  00000+0  47335-3 0  9995
2 49390  34.9903 183.8731 0005688 189.0601 171.0012 15.24952145241689
STARLINK-30962          
1 58458U 23183X   26068.30330837 -.00001070  00000+0 -30200-4 0  9994
2 58458  43.0039  43.0767 0002305 272.6692  87.3895 15.26735702126683
